P/2011 V1 (Boattini),e,7.3822,46.4901,269.5902,3.858229,0.1300535,0.54838099,351.9989,02/21.0/2026,2000,g 15.5,4.0
# From MPC 82718
P/2011 W1 (PANSTARRS),e,3.7157,161.7900,283.1159,4.675926,0.0974771,0.28825381,143.5217,02/21.0/2026,2000,g 11.5,4.0
# From MPC 79342
P/2011 Y2 (Boattini),e,6.3930,309.3197,132.0970,6.225189,0.0634564,0.71114232,322.6696,02/21.0/2026,2000,g 15.0,4.0
# From MPC 93583
C/2012 A1 (PANSTARRS),e,121.0090,277.8732,191.9558,28996,0.0000002,0.99973743,0.0000,11/29.9234/2013,2000,g  6.0,4.0
# From unp
P/2012 A3 (SOHO),e,11.0147,174.5554,219.8302,2.584275,0.2372444,0.77002869,141.7193,02/21.0/2026,2000,g 17.0,4.0
# From MPEC 2022-K19
P/2012 B1 (PANSTARRS),e,7.6051,36.2085,161.8535,6.545059,0.0588618,0.41050769,273.1684,02/21.0/2026,2000,g  9.0,4.0
# From MPC 84931
P/2012 F2 (PANSTARRS),e,14.6947,226.8854,33.2131,6.350516,0.0615872,0.54141484,290.9763,02/21.0/2026,2000,g 12.0,4.0
# From MPEC 2022-ED3
P/2012 G1 (PANSTARRS),e,12.1685,283.2294,266.0155,4.161542,0.1160974,0.32993270,228.7870,02/21.0/2026,2000,g 15.0,4.0
# From MPC103843
C/2012 K1 (PANSTARRS),e,142.5986,317.7623,203.1980,8434,0.0000013,0.99987441,0.0000,08/23.5215/2014,2000,g  5.6,3.2
# From MPC 80898
P/2012 K3 (Gibbs),e,13.1815,125.8016,172.1104,3.633802,0.1422860,0.42176702,339.3924,02/21.0/2026,2000,g 15.0,4.0
# From MPC100577
C/2012 K8 (Lemmon),h,08/20.3058/2014,105.9740,312.7275,75.8474,1.000736,6.461138,2000,6.0,4.0
# From MPC112389
C/2012 LP26 (Palomar),h,08/12.5415/2015,25.3598,154.0934,145.3128,1.001393,6.570634,2000,6.5,4.0
# From MPC 81470
P/2012 O1 (McNaught),e,7.4280,91.9397,238.2775,3.542460,0.1478246,0.59346343,16.5398,02/21.0/2026,2000,g 17.5,4.0
# From MPC 80899
P/2012 O2 (McNaught),e,24.4558,120.6586,183.3936,3.630990,0.1424513,0.53129094,354.3750,02/21.0/2026,2000,g 17.0,4.0
# From MPC115880
C/2012 Q1 (Kowalski),e,45.1657,184.4847,139.4821,26.22122,0.0073405,0.63624469,37.6568,02/21.0/2026,2000,g  4.0,4.0
# From MPEC 2025-W75
C/2012 S1 (ISON),h,11/27.7147/2013,58.4137,297.0392,345.1095,1.000003,0.014229,2000,8.5,3.2
# From MPC 80900
P/2012 T3 (PANSTARRS),e,9.5535,114.3199,195.4287,6.162340,0.0644296,0.61561646,325.5385,02/21.0/2026,2000,g 15.0,4.0
# From MPC108592
C/2012 X1 (LINEAR),e,44.2873,113.3556,132.1422,159.2154,0.0004906,0.98986413,0.0000,02/15.4309/2014,2000,g  4.8,3.6
# From MPC103843
C/2013 A1 (Siding Spring),h,10/26.3602/2014,128.7551,301.2022,2.5579,1.000074,1.400342,2000,8.2,2.4
# From MPEC 2025-YF1
C/2013 C2 (Tenagra),e,21.3719,247.5780,308.7358,15.87327,0.0155849,0.42599331,59.6592,02/21.0/2026,2000,g  4.0,4.0
# From MPEC 2013-Y32
P/2013 CU129 (PANSTARRS),e,11.8243,45.6446,212.9872,2.904011,0.1991621,0.71577969,202.5636,02/21.0/2026,2000,g 18.0,2.0
# From MPC 90270
C/2013 E1 (McNaught),e,158.7110,133.8193,311.3621,6519,0.0000019,0.99880903,0.0000,06/09.8595/2013,2000,g  5.5,4.0
# From MPC 91612
P/2013 G1 (Kowalski),e,5.4567,221.3021,51.3016,6.909942,0.0542616,0.51020093,243.0283,02/21.0/2026,2000,g 11.0,4.0
# From MPC 84025
P/2013 G4 (PANSTARRS),e,5.9197,339.5863,214.5123,4.431789,0.1056417,0.40974411,141.8067,02/21.0/2026,2000,g 15.0,4.0
# From MPC 91613
P/2013 J2 (McNaught),e,15.4994,289.2821,37.8227,6.232664,0.0633423,0.65564831,289.2580,02/21.0/2026,2000,g 13.0,4.0
# From MPC111767
C/2013 P3 (Palomar),h,11/25.2130/2014,93.8466,177.3659,177.3506,1.002207,8.688327,2000,5.5,4.0
# From MPC 96865
C/2013 P4 (PANSTARRS),e,4.2600,256.4969,113.8930,14.78407,0.0173386,0.59395452,73.0512,02/21.0/2026,2000,g  7.5,4.0
# From MPEC 2022-V95
P/2013 R3 (Catalina-PANSTARRS),e,0.8667,341.7354,11.3481,3.029832,0.1868857,0.27833107,131.1801,02/21.0/2026,2000,g 14.0,4.0
# From MPC 86643
P/2013 T2 (Schwartz),e,9.4463,0.7968,345.5602,3.493734,0.1509278,0.50011332,343.3388,02/21.0/2026,2000,g 16.0,4.0
# From MPC xxxxx
C/2013 US10 (Catalina),h,11/12.4693/2015,148.9003,186.1970,340.2138,1.000161,0.812836,2000,8.7,4.0
# From MPC111767
C/2013 V4 (Catalina),h,10/10.4781/2015,67.9756,55.5584,40.4481,1.000465,5.183553,2000,6.0,4.0
# From MPC 91613
P/2013 W1 (PANSTARRS),e,4.7002,117.8370,1.2706,3.483837,0.1515714,0.59393001,301.2017,02/21.0/2026,2000,g 17.5,4.0
# From MPC109141
C/2013 W2 (PANSTARRS),e,4.8523,178.2588,303.9010,9.613588,0.0330656,0.54786138,135.6069,02/21.0/2026,2000,g 13.5,2.0
# From MPC111767
C/2013 X1 (PANSTARRS),h,04/23.6437/2016,163.0737,132.0552,165.4777,1.000931,1.312415,2000,10.5,2.0
# From MPC101095
P/2013 YG46 (Spacewatch),e,7.1292,40.4542,251.3146,3.243590,0.1687194,0.47993528,187.4252,02/21.0/2026,2000,g 10.0,4.0
# From MPC108592
C/2014 A4 (SONEAR),h,09/05.6812/2015,121.3490,29.7004,356.8808,1.000093,4.205774,2000,6.0,4.0
# From MPEC 2022-HC2
C/2014 B1 (Schwartz),h,09/09.5154/2017,28.3842,161.2961,345.7430,1.000412,9.535479,2000,4.0,4.0
# From MPEC 2024-F34
P/2014 C1 (TOTAS),e,3.1954,39.6101,187.9921,4.038549,0.1214412,0.33953248,255.1251,02/21.0/2026,2000,g 15.5,4.0
# From MPC181177
C/2014 F3 (Sheppard-Trujillo),e,6.5208,325.9870,5.0995,14.36669,0.0180996,0.60098501,31.3405,02/21.0/2026,2000,g  6.0,4.0
# From MPC 98560
P/2014 L2 (NEOWISE),e,5.1884,149.3262,182.6622,6.315138,0.0621055,0.64587227,263.3939,02/21.0/2026,2000,g 12.0,4.0
# From MPEC 2022-M88
C/2014 M2 (Christensen),e,32.3373,245.4000,40.4165,1273,0.0000217,0.99454905,0.0000,07/07.6283/2014,2000,g  6.0,4.0
# From MPC 98560
P/2014 O3 (PANSTARRS),e,7.7889,87.6239,204.5559,7.588995,0.0471441,0.38238606,204.9613,02/21.0/2026,2000,g 10.5,4.0
# From MPEC 2021-J28
C/2014 OE4 (PANSTARRS),h,12/06.3793/2016,81.2611,240.4523,65.8738,1.000055,6.264785,2000,11.0,2.0
# From MPEC 2025-YF1
C/2014 OG392 (PANSTARRS),e,9.0320,145.8306,255.5259,12.25331,0.0229786,0.18472202,34.5419,02/21.0/2026,2000,g  6.0,4.0
# From MPC xxxxx
C/2014 Q2 (Lovejoy),e,80.7928,94.8676,12.3250,403.0934,0.0001218,0.99680485,0.0000,01/30.5033/2015,2000,g  8.2,4.0
# From MPEC 2021-F20
C/2014 R3 (PANSTARRS),e,90.7737,333.9827,113.3439,51559,0.0000001,0.99985912,0.0000,08/08.7333/2016,2000,g  6.5,4.0
# From MPEC 2026-A90
C/2014 UN271 (Bernardinelli-Bernstein),h,01/16.2085/2031,95.4462,189.9872,326.0773,1.004320,10.960464,2000,2.5,3.2
# From MPC 95211
P/2014 V1 (PANSTARRS),e,22.4954,166.1659,177.6249,5.483164,0.0767639,0.53325674,310.5161,02/21.0/2026,2000,g 14.0,4.0
# From MPC105542
P/2014 W4 (PANSTARRS),e,15.2825,33.2768,67.8224,6.578238,0.0584171,0.35524260,215.7887,02/21.0/2026,2000,g 11.0,4.0
# From MPC 99270
P/2015 B1 (PANSTARRS),e,18.0973,352.8390,188.6469,9.470569,0.0338174,0.36735209,129.1497,02/21.0/2026,2000,g  8.5,4.0
# From MPC 98561
C/2015 D2 (PANSTARRS),e,31.9224,162.7105,292.3590,12.79810,0.0215271,0.56192434,97.3384,02/21.0/2026,2000,g  8.0,4.0
# From MPEC 2020-L06
C/2015 D3 (PANSTARRS),e,128.5704,156.8909,2.6356,13026,0.0000007,0.99937550,0.0000,04/25.1864/2016,2000,g  5.5,4.0
# From MPC109141
P/2015 D5 (Kowalski),e,20.5462,74.0788,39.6702,8.944140,0.0368465,0.49207277,159.6129,02/21.0/2026,2000,g  9.0,4.0
# From MPEC 2024-R10
P/2015 D6 (Lemmon-PANSTARRS),e,20.3518,45.2395,126.0269,7.116641,0.0519148,0.36317857,201.6538,02/21.0/2026,2000,g 10.5,4.0
# From MPEC 2021-F20
C/2015 ER61 (PANSTARRS),e,6.3086,234.9540,68.7749,469.8463,0.0000968,0.99773667,0.0000,05/05.2566/2017,2000,g 11.0,2.0
# From MPC107684
P/2015 M2 (PANSTARRS),e,3.9677,86.6973,225.5273,7.255754,0.0504290,0.17767684,193.3101,02/21.0/2026,2000,g  8.5,4.0
# From MPEC 2021-P47
C/2015 O1 (PANSTARRS),h,02/18.0387/2018,27.1036,299.7018,89.8561,1.001761,3.747603,2000,6.5,4.0
# From MPEC 2022-K19
P/2015 PD229 (Cameron-ISON),e,2.0192,342.7501,352.6153,7.210416,0.0509054,0.32458917,196.1421,02/21.0/2026,2000,g 11.5,2.0
# From MPC 95734
P/2015 R2 (PANSTARRS),e,15.4825,168.6006,149.8845,4.478868,0.1039804,0.45179010,44.9517,02/21.0/2026,2000,g 14.5,4.0
# From MPC102097
C/2015 T5 (Sheppard-Tholen),e,11.0188,311.2536,62.2216,28.43522,0.0065001,0.66983730,23.8868,02/21.0/2026,2000,g  7.5,4.0
# From MPEC 2026-A90
P/2015 TO19 (Lemmon-PANSTARRS),e,6.5050,321.6030,89.4536,4.548542,0.1016005,0.35999355,9.0416,02/21.0/2026,2000,g 14.0,4.0
# From MPC110080
P/2015 TP200 (LINEAR),e,8.7769,6.8646,82.6708,7.263537,0.0503480,0.53724949,170.9537,02/21.0/2026,2000,g 11.0,4.0
# From MPC115881
C/2015 V1 (PANSTARRS),e,139.1783,197.3216,179.9144,214215,0.0000000,0.99997998,0.0000,12/19.2189/2017,2000,g  6.5,4.0
# From MPC112390
C/2015 V2 (Johnson),h,06/08.9761/2017,49.7933,70.0392,164.7406,1.000781,1.635178,2000,5.0,4.0
# From MPC104791
C/2015 V4 (PANSTARRS),e,60.7720,179.7845,306.7930,18.43447,0.0124525,0.70532659,43.1026,02/21.0/2026,2000,g  8.5,4.0
# From MPEC 2022-OB6
C/2015 XY1 (Lemmon),h,04/27.8402/2018,148.8589,281.5266,196.3353,1.001448,7.952325,2000,5.5,4.0
# From MPEC 2023-J29
P/2015 X3 (PANSTARRS),e,24.4208,77.2506,307.0006,4.995377,0.0882778,0.43961313,338.3931,02/21.0/2026,2000,g 15.0,4.0
# From MPC119995
C/2015 X5 (PANSTARRS),h,12/28.2865/2017,124.3804,122.2003,27.6880,1.000515,6.813752,2000,7.5,4.0
# From MPC115881
P/2015 X6 (PANSTARRS),e,4.5662,106.9296,329.5105,2.751831,0.2159094,0.17402068,61.8062,02/21.0/2026,2000,g 16.0,4.0
# From MPEC 2022-O08
C/2016 A1 (PANSTARRS),e,121.2789,128.0066,10.1869,11872,0.0000008,0.99955090,0.0000,11/20.0711/2017,2000,g  6.0,4.0
# From MPEC 2022-OB6
P/2016 A3 (PANSTARRS),e,8.5258,187.1044,340.8189,7.865332,0.0446816,0.38751042,143.9096,02/21.0/2026,2000,g 10.0,4.0
# From MPC102098
P/2016 A7 (PANSTARRS),e,16.1202,219.8807,353.1744,5.084448,0.0859683,0.56888882,320.3912,02/21.0/2026,2000,g 16.0,4.0
# From MPEC 2020-L06
C/2016 C1 (PANSTARRS),h,02/18.2771/2016,56.2058,181.7183,328.5262,1.001517,8.429063,2000,5.5,4.0
# From MPEC 2020-L06
C/2016 E1 (PANSTARRS),h,05/27.4532/2017,131.8723,233.1395,47.2286,1.001473,8.161001,2000,6.5,4.0
# From MPEC 2021-P47
P/2016 G1 (PANSTARRS),e,10.9704,204.0087,111.0810,2.583300,0.2373787,0.20987043,66.6782,02/21.0/2026,2000,g 14.0,4.0
# From MPEC 2022-ED3
C/2016 M1 (PANSTARRS),e,90.7360,92.2976,209.8377,2172,0.0000097,0.99898179,0.0000,08/07.8209/2018,2000,g  5.0,4.0
# From MPEC 2021-P47
